start=new Date('2021-08-23T00:00:00.000Z').valueOf();
sats=[{"MEAN_MOTION":"15.06387563","SEMIMAJOR_AXIS":"6925.387","TLE_LINE1":"1 45193U 20012R   21234.89147641  .00000979  00000-0  84638-4 0  9997","CENTER_NAME":"EARTH","BSTAR":"0.00008463800000","PERIAPSIS":"546.767","INCLINATION":"53.0543","MEAN_MOTION_DOT":"0.00000979","TLE_LINE2":"2 45193  53.0543 297.7471 0000700 118.0686 242.0374 15.06387563 84613","RCS_SIZE":"LARGE","ELEMENT_SET_NO":"999","GP_ID":"183269737","OBJECT_ID":"2020-012R","DECAY_DATE":null,"REV_AT_EPOCH":"8461","MEAN_ANOMALY":"242.0374","COUNTRY_CODE":"US","EPHEMERIS_TYPE":"0","EPOCH":"2021-08-22T21:23:43.561824","SITE":"AFETR","MEAN_MOTION_DDOT":"0.0000000000000","REF_FRAME":"TEME","FILE":"3101563","CLASSIFICATION_TYPE":"U","LAUNCH_DATE":"2020-02-17","ECCENTRICITY":"0.00007000","ARG_OF_PERICENTER":"118.0686","NORAD_CAT_ID":"45193","OBJECT_NAME":"STARLINK-1239","TIME_SYSTEM":"UTC","OBJECT_TYPE":"PAYLOAD","APOAPSIS":"547.736","RA_OF_ASC_NODE":"297.7471","MEAN_ELEMENT_THEORY":"SGP4","PERIOD":"95.593"},{"PERIOD":"95.593","MEAN_ELEMENT_THEORY":"SGP4","RA_OF_ASC_NODE":"297.7304","APOAPSIS":"547.666","OBJECT_TYPE":"PAYLOAD","TIME_SYSTEM":"UTC","NORAD_CAT_ID":"45194","OBJECT_NAME":"STARLINK-1240","ARG_OF_PERICENTER":"101.4601","ECCENTRICITY":"0.00006050","LAUNCH_DATE":"2020-02-17","CLASSIFICATION_TYPE":"U","FILE":"3101563","REF_FRAME":"TEME","MEAN_MOTION_DDOT":"0.0000000000000","SITE":"AFETR","EPOCH":"2021-08-22T21:29:01.699584","EPHEMERIS_TYPE":"0","COUNTRY_CODE":"US","MEAN_ANOMALY":"258.6456","REV_AT_EPOCH":"8456","DECAY_DATE":null,"OBJECT_ID":"2020-012S","GP_ID":"183269987","RCS_SIZE":"LARGE","ELEMENT_SET_NO":"999","TLE_LINE2":"2 45194  53.0546 297.7304 0000605 101.4601 258.6456 15.06389115 84562","MEAN_MOTION_DOT":"-0.00001214","PERIAPSIS":"546.828","BSTAR":"-0.00006266300000","INCLINATION":"53.0546","CENTER_NAME":"EARTH","TLE_LINE1":"1 45194U 20012S   21234.89515856 -.00001214  00000-0 -62663-4 0  9994","SEMIMAJOR_AXIS":"6925.382","MEAN_MOTION":"15.06389115"},{"MEAN_ANOMALY":"252.5660","REV_AT_EPOCH":"8466","COUNTRY_CODE":"US","EPHEMERIS_TYPE":"0","DECAY_DATE":null,"OBJECT_ID":"2020-012T","GP_ID":"183270238","TLE_LINE2":"2 45195  53.0538 297.7716 0000998 107.5438 252.5660 15.06396509 84667","MEAN_MOTION_DOT":"-0.00000542","ELEMENT_SET_NO":"999","RCS_SIZE":"LARGE","PERIAPSIS":"546.533","BSTAR":"-0.00001750800000","INCLINATION":"53.0538","CENTER_NAME":"EARTH","TLE_LINE1":"1 45195U 20012T   21234.88778625 -.00000542  00000-0 -17508-4 0  9990","MEAN_MOTION":"15.06396509","SEMIMAJOR_AXIS":"6925.359","RA_OF_ASC_NODE":"297.7716","PERIOD":"95.592","MEAN_ELEMENT_THEORY":"SGP4","OBJECT_TYPE":"PAYLOAD","TIME_SYSTEM":"UTC","APOAPSIS":"547.915","ARG_OF_PERICENTER":"107.5438","OBJECT_NAME":"STARLINK-1241","NORAD_CAT_ID":"45195","CLASSIFICATION_TYPE":"U","ECCENTRICITY":"0.00009980","LAUNCH_DATE":"2020-02-17","FILE":"3101563","SITE":"AFETR","EPOCH":"2021-08-22T21:18:24.732000","MEAN_MOTION_DDOT":"0.0000000000000","REF_FRAME":"TEME"},{"FILE":"3101563","REF_FRAME":"TEME","MEAN_MOTION_DDOT":"0.0000000000000","EPOCH":"2021-08-22T21:02:29.700960","SITE":"AFETR","LAUNCH_DATE":"2020-02-17","ECCENTRICITY":"0.00007280","CLASSIFICATION_TYPE":"U","APOAPSIS":"547.749","TIME_SYSTEM":"UTC","OBJECT_TYPE":"PAYLOAD","NORAD_CAT_ID":"45196","OBJECT_NAME":"STARLINK-1244","ARG_OF_PERICENTER":"112.6669","MEAN_ELEMENT_THEORY":"SGP4","PERIOD":"95.593","RA_OF_ASC_NODE":"297.8191","TLE_LINE1":"1 45196U 20012U   21234.87673265 -.00001042  00000-0 -51090-4 0  9994","SEMIMAJOR_AXIS":"6925.380","MEAN_MOTION":"15.06389889","PERIAPSIS":"546.740","INCLINATION":"53.0535","BSTAR":"-0.00005109000000","CENTER_NAME":"EARTH","GP_ID":"183270489","OBJECT_ID":"2020-012U","RCS_SIZE":"LARGE","ELEMENT_SET_NO":"999","MEAN_MOTION_DOT":"-0.00001042","TLE_LINE2":"2 45196  53.0535 297.8191 0000728 112.6669 247.4397 15.06389889 84716","COUNTRY_CODE":"US","EPHEMERIS_TYPE":"0","REV_AT_EPOCH":"8471","MEAN_ANOMALY":"247.4397","DECAY_DATE":null},{"DECAY_DATE":null,"REV_AT_EPOCH":"8463","MEAN_ANOMALY":"262.8968","COUNTRY_CODE":"US","EPHEMERIS_TYPE":"0","TLE_LINE2":"2 45197  53.0546 297.8596 0001000  97.2134 262.8968 15.06399800 84637","MEAN_MOTION_DOT":"0.00000991","ELEMENT_SET_NO":"999","RCS_SIZE":"LARGE","GP_ID":"183269237","OBJECT_ID":"2020-012V","CENTER_NAME":"EARTH","BSTAR":"0.00008538700000","PERIAPSIS":"546.522","INCLINATION":"53.0546","MEAN_MOTION":"15.06399800","SEMIMAJOR_AXIS":"6925.349","TLE_LINE1":"1 45197U 20012V   21234.86567364  .00000991  00000-0  85387-4 0  9992","RA_OF_ASC_NODE":"297.8596","MEAN_ELEMENT_THEORY":"SGP4","PERIOD":"95.592","ARG_OF_PERICENTER":"97.2134","OBJECT_NAME":"STARLINK-1269","NORAD_CAT_ID":"45197","OBJECT_TYPE":"PAYLOAD","TIME_SYSTEM":"UTC","APOAPSIS":"547.907","CLASSIFICATION_TYPE":"U","LAUNCH_DATE":"2020-02-17","ECCENTRICITY":"0.00010000","EPOCH":"2021-08-22T20:46:34.202496","SITE":"AFETR","MEAN_MOTION_DDOT":"0.0000000000000","REF_FRAME":"TEME","FILE":"3101563"},{"FILE":"3101563","MEAN_MOTION_DDOT":"0.0000000000000","REF_FRAME":"TEME","SITE":"AFETR","EPOCH":"2021-08-22T20:33:17.928864","ECCENTRICITY":"0.00003630","LAUNCH_DATE":"2020-02-17","CLASSIFICATION_TYPE":"U","APOAPSIS":"547.482","TIME_SYSTEM":"UTC","OBJECT_TYPE":"PAYLOAD","NORAD_CAT_ID":"45198","OBJECT_NAME":"STARLINK-1154","ARG_OF_PERICENTER":"98.7944","PERIOD":"95.592","MEAN_ELEMENT_THEORY":"SGP4","RA_OF_ASC_NODE":"277.9105","TLE_LINE1":"1 45198U 20012W   21234.85645751  .00000473  00000-0  50597-4 0  9999","SEMIMAJOR_AXIS":"6925.365","MEAN_MOTION":"15.06394594","PERIAPSIS":"546.979","BSTAR":"0.00005059700000","INCLINATION":"53.0548","CENTER_NAME":"EARTH","OBJECT_ID":"2020-012W","GP_ID":"183269487","RCS_SIZE":"LARGE","ELEMENT_SET_NO":"999","TLE_LINE2":"2 45198  53.0548 277.9105 0000363  98.7944 261.3086 15.06394594 84888","MEAN_MOTION_DOT":"0.00000473","COUNTRY_CODE":"US","EPHEMERIS_TYPE":"0","MEAN_ANOMALY":"261.3086","REV_AT_EPOCH":"8488","DECAY_DATE":null},{"FILE":"3101563","REF_FRAME":"TEME","MEAN_MOTION_DDOT":"0.0000000000000","SITE":"AFETR","EPOCH":"2021-08-22T20:38:36.257568","ECCENTRICITY":"0.00005310","LAUNCH_DATE":"2020-02-17","CLASSIFICATION_TYPE":"U","APOAPSIS":"547.596","OBJECT_TYPE":"PAYLOAD","TIME_SYSTEM":"UTC","OBJECT_NAME":"STARLINK-1197","NORAD_CAT_ID":"45199","ARG_OF_PERICENTER":"85.7948","PERIOD":"95.592","MEAN_ELEMENT_THEORY":"SGP4","RA_OF_ASC_NODE":"277.8967","TLE_LINE1":"1 45199U 20012X   21234.86014187 -.00001140  00000-0 -57679-4 0  9996","SEMIMAJOR_AXIS":"6925.363","MEAN_MOTION":"15.06395167","PERIAPSIS":"546.861","INCLINATION":"53.0547","BSTAR":"-0.00005767900000","CENTER_NAME":"EARTH","OBJECT_ID":"2020-012X","GP_ID":"183270739","ELEMENT_SET_NO":"999","RCS_SIZE":"LARGE","MEAN_MOTION_DOT":"-0.00001140","TLE_LINE2":"2 45199  53.0547 277.8967 0000531  85.7948 274.3101 15.06395167 84946","COUNTRY_CODE":"US","EPHEMERIS_TYPE":"0","MEAN_ANOMALY":"274.3101","REV_AT_EPOCH":"8494","DECAY_DATE":null},{"CLASSIFICATION_TYPE":"U","ECCENTRICITY":"0.00005200","LAUNCH_DATE":"2020-02-17","FILE":"3101345","SITE":"AFETR","EPOCH":"2021-08-22T12:51:31.166496","MEAN_MOTION_DDOT":"0.0000000000000","REF_FRAME":"TEME","RA_OF_ASC_NODE":"279.3467","PERIOD":"95.592","MEAN_ELEMENT_THEORY":"SGP4","TIME_SYSTEM":"UTC","OBJECT_TYPE":"PAYLOAD","APOAPSIS":"547.572","ARG_OF_PERICENTER":"89.3975","OBJECT_NAME":"STARLINK-1199","NORAD_CAT_ID":"45201","BSTAR":"0.00006503600000","PERIAPSIS":"546.852","INCLINATION":"53.0546","CENTER_NAME":"EARTH","TLE_LINE1":"1 45201U 20012Z   21234.53577739  .00000688  00000-0  65036-4 0  9991","MEAN_MOTION":"15.06400461","SEMIMAJOR_AXIS":"6925.347","MEAN_ANOMALY":"270.7074","REV_AT_EPOCH":"8489","EPHEMERIS_TYPE":"0","COUNTRY_CODE":"US","DECAY_DATE":null,"OBJECT_ID":"2020-012Z","GP_ID":"183243361","TLE_LINE2":"2 45201  53.0546 279.3467 0000520  89.3975 270.7074 15.06400461 84896","MEAN_MOTION_DOT":"0.00000688","RCS_SIZE":"LARGE","ELEMENT_SET_NO":"999"},{"OBJECT_TYPE":"PAYLOAD","TIME_SYSTEM":"UTC","APOAPSIS":"543.660","ARG_OF_PERICENTER":"75.5986","NORAD_CAT_ID":"45202","OBJECT_NAME":"STARLINK-1203","RA_OF_ASC_NODE":"293.9889","MEAN_ELEMENT_THEORY":"SGP4","PERIOD":"95.502","FILE":"3101563","EPOCH":"2021-08-22T21:02:43.686528","SITE":"AFETR","REF_FRAME":"TEME","MEAN_MOTION_DDOT":"0.0000000000000","CLASSIFICATION_TYPE":"U","LAUNCH_DATE":"2020-02-17","ECCENTRICITY":"0.00011540","GP_ID":"183269738","OBJECT_ID":"2020-012AA","TLE_LINE2":"2 45202  52.9825 293.9889 0001154  75.5986 284.5131 15.07821203 84729","MEAN_MOTION_DOT":"0.00001598","RCS_SIZE":"LARGE","ELEMENT_SET_NO":"999","REV_AT_EPOCH":"8472","MEAN_ANOMALY":"284.5131","COUNTRY_CODE":"US","EPHEMERIS_TYPE":"0","DECAY_DATE":null,"TLE_LINE1":"1 45202U 20012AA  21234.87689452  .00001598  00000-0  12161-3 0  9996","MEAN_MOTION":"15.07821203","SEMIMAJOR_AXIS":"6920.996","BSTAR":"0.00012161000000","PERIAPSIS":"542.063","INCLINATION":"52.9825","CENTER_NAME":"EARTH"},{"SEMIMAJOR_AXIS":"6921.673","MEAN_MOTION":"15.07599907","TLE_LINE1":"1 45203U 20012AB  21234.84924618  .00000961  00000-0  80918-4 0  9999","CENTER_NAME":"EARTH","PERIAPSIS":"542.651","INCLINATION":"53.0006","BSTAR":"0.00008091800000","ELEMENT_SET_NO":"999","RCS_SIZE":"LARGE","TLE_LINE2":"2 45203  53.0006 275.5405 0001282 128.6898 231.4205 15.07599907 84891","MEAN_MOTION_DOT":"0.00000961","OBJECT_ID":"2020-012AB","GP_ID":"183269988","DECAY_DATE":null,"EPHEMERIS_TYPE":"0","COUNTRY_CODE":"US","MEAN_ANOMALY":"231.4205","REV_AT_EPOCH":"8489","REF_FRAME":"TEME","MEAN_MOTION_DDOT":"0.0000000000000","SITE":"AFETR","EPOCH":"2021-08-22T20:22:54.869952","FILE":"3101563","ECCENTRICITY":"0.00012820","LAUNCH_DATE":"2020-02-17","CLASSIFICATION_TYPE":"U","NORAD_CAT_ID":"45203","OBJECT_NAME":"STARLINK-1204","ARG_OF_PERICENTER":"128.6898","APOAPSIS":"544.426","TIME_SYSTEM":"UTC","OBJECT_TYPE":"PAYLOAD","PERIOD":"95.516","MEAN_ELEMENT_THEORY":"SGP4","RA_OF_ASC_NODE":"275.5405"}];
